[
    {
        "Altitude(m)": 605459.0109503237,
        "Argument of Periapsis(deg)": 0.0,
        "Eccentricity": 0.0,
        "Inclination(deg)": 60.0,
        "Latitude(deg)": 27.988156052005365,
        "Longitude(deg)": -127.20137906590786,
        "Mean Anomaly(deg)": 32.72730000000001,
        "RAAN(deg)": 315.0,
        "Satellite Name": "Test1 1388",
        "Satellite Number": 1388,
        "Semi-Major Axis(m)": 6980739.136638005,
        "Time(s)": 0
    },
    {
        "Altitude(m)": 605535.8016230885,
        "Argument of Periapsis(deg)": 0.00010418945913296404,
        "Eccentricity": 0.0,
        "Inclination(deg)": 60.0,
        "Latitude(deg)": 28.501285139567727,
        "Longitude(deg)": -126.84443339805843,
        "Mean Anomaly(deg)": 33.34740614546182,
        "RAAN(deg)": 314.99957995086027,
        "Satellite Name": "Test1 1388",
        "Satellite Number": 1388,
        "Semi-Major Axis(m)": 6980739.136638005,
        "Time(s)": 10
    }
]